[{"OBJECT_NAME":"CELESTIS-02 & TAURUS R/B","OBJECT_ID":"1998-007D","EPOCH":"2026-03-29T03:37:03.199008","MEAN_MOTION":14.22459077,"ECCENTRICITY":0.006376,"INCLINATION":108.0041,"RA_OF_ASC_NODE":170.7431,"ARG_OF_PERICENTER":269.6481,"MEAN_ANOMALY":145.7683,"EPHEMERIS_TYPE":0,"CLASSIFICATION_TYPE":"U","NORAD_CAT_ID":25160,"ELEMENT_SET_NO":999,"REV_AT_EPOCH":45913,"BSTAR":7.2298e-5,"MEAN_MOTION_DOT":3.5e-7,"MEAN_MOTION_DDOT":0}]
