CELESTIS-02 & TAURUS R/B
1 25160U 98007D   26088.15073147  .00000035  00000+0  72298-4 0  9999
2 25160 108.0041 170.7431 0063760 269.6481 145.7683 14.22459077459138
